[
  {
    "name": "ONEWEB-0616",
    "noradId": "55157",
    "line1": "1 55157U 23004T   26180.52062937  .00000079  00000+0  17106-3 0  9996",
    "line2": "2 55157  87.9134   3.4136 0001068 110.6118 249.5129 13.17650203169328"
  },
  {
    "name": "ONEWEB-0617",
    "noradId": "55158",
    "line1": "1 55158U 23004U   26180.50337795 -.00000493  00000+0 -14283-2 0  9996",
    "line2": "2 55158  87.8883  18.6168 0002161  80.5544 279.5829 13.11416959167471"
  },
  {
    "name": "ONEWEB-0618",
    "noradId": "55159",
    "line1": "1 55159U 23004V   26180.49132145  .00003406  00000+0  18980-3 0  9991",
    "line2": "2 55159  86.9090 172.6388 0009585 241.3614 118.6662 15.13230210184126"
  },
  {
    "name": "ONEWEB-0619",
    "noradId": "55160",
    "line1": "1 55160U 23004W   26180.55269253  .00000050  00000+0  94603-4 0  9990",
    "line2": "2 55160  87.9141   3.3892 0001681  77.3440 282.7880 13.17649976169223"
  },
  {
    "name": "ONEWEB-0620",
    "noradId": "55161",
    "line1": "1 55161U 23004X   26180.49828506 -.00000444  00000+0 -12899-2 0  9990",
    "line2": "2 55161  87.8876  18.6254 0002031  93.1286 267.0075 13.11415528167445"
  },
  {
    "name": "ONEWEB-0621",
    "noradId": "55162",
    "line1": "1 55162U 23004Y   26180.52542377  .00000232  00000+0  61932-3 0  9990",
    "line2": "2 55162  87.8888  18.6100 0001904  80.7527 279.3816 13.11418049167425"
  },
  {
    "name": "ONEWEB-0622",
    "noradId": "55163",
    "line1": "1 55163U 23004Z   26180.53051615  .00000432  00000+0  11826-2 0  9990",
    "line2": "2 55163  87.8889  18.6116 0002509  80.7860 279.3552 13.11417568167417"
  },
  {
    "name": "ONEWEB-0623",
    "noradId": "55164",
    "line1": "1 55164U 23004AA  26180.54761419  .00000061  00000+0  12294-3 0  9991",
    "line2": "2 55164  87.9127   3.4190 0002219  70.3413 289.7958 13.17650309169218"
  },
  {
    "name": "ONEWEB-0624",
    "noradId": "55165",
    "line1": "1 55165U 23004AB  26180.46454311  .00000306  00000+0  81010-3 0  9997",
    "line2": "2 55165  87.8950 348.1410 0001845  89.3015 270.8325 13.12928337169682"
  },
  {
    "name": "ONEWEB-0625",
    "noradId": "55166",
    "line1": "1 55166U 23004AC  26180.53750464  .00000038  00000+0  64428-4 0  9991",
    "line2": "2 55166  87.9132   3.4170 0001701  90.2617 269.8710 13.17650097169204"
  },
  {
    "name": "ONEWEB-0626",
    "noradId": "55167",
    "line1": "1 55167U 23004AD  26180.52735578 -.00000567  00000+0 -14943-2 0  9994",
    "line2": "2 55167  87.9132   3.4184 0002126 100.1411 259.9961 13.17652211169203"
  },
  {
    "name": "ONEWEB-0627",
    "noradId": "55168",
    "line1": "1 55168U 23004AE  26180.51555322 -.00000251  00000+0 -67980-3 0  9991",
    "line2": "2 55168  87.9133   3.4208 0002098  76.5396 283.5969 13.17650257169207"
  },
  {
    "name": "ONEWEB-0628",
    "noradId": "55169",
    "line1": "1 55169U 23004AF  26180.45050314  .00000430  00000+0  11603-2 0  9993",
    "line2": "2 55169  87.8952 348.2139 0002007  72.7459 287.3889 13.12443048169641"
  },
  {
    "name": "ONEWEB-0629",
    "noradId": "55170",
    "line1": "1 55170U 23004AG  26180.49109613  .00000164  00000+0  39049-3 0  9995",
    "line2": "2 55170  87.9131   3.4220 0001676  81.5216 278.6105 13.17649261169200"
  },
  {
    "name": "ONEWEB-0631",
    "noradId": "55171",
    "line1": "1 55171U 23004AH  26180.46935898  .00000048  00000+0  88055-4 0  9998",
    "line2": "2 55171  87.9178 332.9923 0002379  96.9594 263.1808 13.18686069171291"
  },
  {
    "name": "ONEWEB-0709",
    "noradId": "55172",
    "line1": "1 55172U 23004AJ  26180.48811701 -.00000184  00000+0 -55606-3 0  9995",
    "line2": "2 55172  87.8876  18.6296 0002261 109.6526 250.4846 13.11415306167488"
  },
  {
    "name": "ONEWEB-0710",
    "noradId": "55173",
    "line1": "1 55173U 23004AK  26180.50542906  .00000039  00000+0  67846-4 0  9994",
    "line2": "2 55173  87.9132   3.4145 0001970  86.3262 273.8095 13.17650634169202"
  },
  {
    "name": "ONEWEB-0711",
    "noradId": "55174",
    "line1": "1 55174U 23004AL  26180.53560399  .00000560  00000+0  15435-2 0  9998",
    "line2": "2 55174  87.8881  18.6079 0002354  73.9817 286.1570 13.11416872167450"
  },
  {
    "name": "ONEWEB-0713",
    "noradId": "55175",
    "line1": "1 55175U 23004AM  26180.55425051  .00000187  00000+0  49128-3 0  9998",
    "line2": "2 55175  87.8880  18.6059 0002091  79.4953 280.6411 13.11415251167440"
  },
  {
    "name": "ONEWEB-0715",
    "noradId": "55176",
    "line1": "1 55176U 23004AN  26180.54916164  .00000497  00000+0  13675-2 0  9999",
    "line2": "2 55176  87.8879  18.6075 0002385 100.0945 260.0452 13.11415093167480"
  },
  {
    "name": "ONEWEB-0716",
    "noradId": "55177",
    "line1": "1 55177U 23004AP  26180.49867775  .00000032  00000+0  48597-4 0  9995",
    "line2": "2 55177  87.9131   3.4185 0001629  92.9397 267.1920 13.17650708169207"
  },
  {
    "name": "ONEWEB-0717",
    "noradId": "55178",
    "line1": "1 55178U 23004AQ  26180.55775529  .00000047  00000+0  88070-4 0  9994",
    "line2": "2 55178  87.9142   3.3957 0002369  82.4717 277.6683 13.17649201169262"
  },
  {
    "name": "ONEWEB-0719",
    "noradId": "55179",
    "line1": "1 55179U 23004AR  26180.49194387  .00000014  00000+0  25449-5 0  9991",
    "line2": "2 55179  87.9140   3.3891 0001668  87.7465 272.3857 13.17649471169205"
  },
  {
    "name": "ONEWEB-0530",
    "noradId": "55796",
    "line1": "1 55796U 23029A   26180.28677727  .00000145  00000+0  32348-3 0  9993",
    "line2": "2 55796  87.9186 272.0569 0002175  87.4798 272.6585 13.20772935162746"
  },
  {
    "name": "ONEWEB-0534",
    "noradId": "55797",
    "line1": "1 55797U 23029B   26180.27498380  .00000133  00000+0  29555-3 0  9992",
    "line2": "2 55797  87.9187 272.0601 0001924 101.8428 258.2921 13.20772587162744"
  },
  {
    "name": "ONEWEB-0556",
    "noradId": "55798",
    "line1": "1 55798U 23029C   26180.28170059 -.00000096  00000+0 -26784-3 0  9995",
    "line2": "2 55798  87.9187 272.0578 0001230  87.2539 272.8735 13.20772244162743"
  },
  {
    "name": "ONEWEB-0562",
    "noradId": "55799",
    "line1": "1 55799U 23029D   26180.26825470  .00000073  00000+0  14718-3 0  9995",
    "line2": "2 55799  87.9187 272.0414 0001869  75.4167 284.7174 13.20771677162745"
  },
  {
    "name": "ONEWEB-0563",
    "noradId": "55800",
    "line1": "1 55800U 23029E   26179.96017288  .00000068  00000+0  13566-3 0  9997",
    "line2": "2 55800  87.9185 272.1331 0001879 105.7205 254.4136 13.20772743162697"
  },
  {
    "name": "ONEWEB-0564",
    "noradId": "55801",
    "line1": "1 55801U 23029F   26179.95345090 -.00000004  00000+0 -40894-4 0  9999",
    "line2": "2 55801  87.9186 272.1081 0001980  88.6369 271.4991 13.20772002162702"
  },
  {
    "name": "ONEWEB-0638",
    "noradId": "55802",
    "line1": "1 55802U 23029G   26180.34356059 -.00000075  00000+0 -23607-3 0  9992",
    "line2": "2 55802  87.8960 287.3282 0001499  88.4111 271.7190 13.14504565160994"
  },
  {
    "name": "ONEWEB-0639",
    "noradId": "55803",
    "line1": "1 55803U 23029H   26180.31422486  .00000098  00000+0  21227-3 0  9997",
    "line2": "2 55803  87.9179 302.5601 0001922 129.5567 230.5736 13.19725612160505"
  }
]