OBJECT_NAME,OBJECT_ID,EPOCH,MEAN_MOTION,ECCENTRICITY,INCLINATION,RA_OF_ASC_NODE,ARG_OF_PERICENTER,MEAN_ANOMALY,EPHEMERIS_TYPE,CLASSIFICATION_TYPE,NORAD_CAT_ID,ELEMENT_SET_NO,REV_AT_EPOCH,BSTAR,MEAN_MOTION_DOT,MEAN_MOTION_DDOT
ONEWEB-0616,2023-004T,2026-06-29T12:29:42.377568,13.17650203,.0001068,87.9134,3.4136,110.6118,249.5129,0,U,55157,999,16932,.17106E-3,.79E-6,0
ONEWEB-0617,2023-004U,2026-06-29T12:04:51.854880,13.11416959,.0002161,87.8883,18.6168,80.5544,279.5829,0,U,55158,999,16747,-.14283E-2,-.493E-5,0
ONEWEB-0618,2023-004V,2026-06-29T11:47:30.173280,15.13230210,.0009585,86.9090,172.6388,241.3614,118.6662,0,U,55159,999,18412,.1898E-3,.3406E-4,0
ONEWEB-0619,2023-004W,2026-06-29T13:15:52.634592,13.17649976,.0001681,87.9141,3.3892,77.3440,282.7880,0,U,55160,999,16922,.94603E-4,.5E-6,0
ONEWEB-0620,2023-004X,2026-06-29T11:57:31.829184,13.11415528,.0002031,87.8876,18.6254,93.1286,267.0075,0,U,55161,999,16744,-.12899E-2,-.444E-5,0
ONEWEB-0621,2023-004Y,2026-06-29T12:36:36.613728,13.11418049,.0001904,87.8888,18.6100,80.7527,279.3816,0,U,55162,999,16742,.61932E-3,.232E-5,0
ONEWEB-0622,2023-004Z,2026-06-29T12:43:56.595360,13.11417568,.0002509,87.8889,18.6116,80.7860,279.3552,0,U,55163,999,16741,.11826E-2,.432E-5,0
ONEWEB-0623,2023-004AA,2026-06-29T13:08:33.866016,13.17650309,.0002219,87.9127,3.4190,70.3413,289.7958,0,U,55164,999,16921,.12294E-3,.61E-6,0
ONEWEB-0624,2023-004AB,2026-06-29T11:08:56.524704,13.12928337,.0001845,87.8950,348.1410,89.3015,270.8325,0,U,55165,999,16968,.8101E-3,.306E-5,0
ONEWEB-0625,2023-004AC,2026-06-29T12:54:00.400896,13.17650097,.0001701,87.9132,3.4170,90.2617,269.8710,0,U,55166,999,16920,.64428E-4,.38E-6,0
ONEWEB-0626,2023-004AD,2026-06-29T12:39:23.539392,13.17652211,.0002126,87.9132,3.4184,100.1411,259.9961,0,U,55167,999,16920,-.14943E-2,-.567E-5,0
ONEWEB-0627,2023-004AE,2026-06-29T12:22:23.798208,13.17650257,.0002098,87.9133,3.4208,76.5396,283.5969,0,U,55168,999,16920,-.6798E-3,-.251E-5,0
ONEWEB-0628,2023-004AF,2026-06-29T10:48:43.471296,13.12443048,.0002007,87.8952,348.2139,72.7459,287.3889,0,U,55169,999,16964,.11603E-2,.43E-5,0
ONEWEB-0629,2023-004AG,2026-06-29T11:47:10.705632,13.17649261,.0001676,87.9131,3.4220,81.5216,278.6105,0,U,55170,999,16920,.39049E-3,.164E-5,0
ONEWEB-0631,2023-004AH,2026-06-29T11:15:52.615872,13.18686069,.0002379,87.9178,332.9923,96.9594,263.1808,0,U,55171,999,17129,.88055E-4,.48E-6,0
ONEWEB-0709,2023-004AJ,2026-06-29T11:42:53.309664,13.11415306,.0002261,87.8876,18.6296,109.6526,250.4846,0,U,55172,999,16748,-.55606E-3,-.184E-5,0
ONEWEB-0710,2023-004AK,2026-06-29T12:07:49.070784,13.17650634,.000197,87.9132,3.4145,86.3262,273.8095,0,U,55173,999,16920,.67846E-4,.39E-6,0
ONEWEB-0711,2023-004AL,2026-06-29T12:51:16.184736,13.11416872,.0002354,87.8881,18.6079,73.9817,286.1570,0,U,55174,999,16745,.15435E-2,.56E-5,0
ONEWEB-0713,2023-004AM,2026-06-29T13:18:07.244064,13.11415251,.0002091,87.8880,18.6059,79.4953,280.6411,0,U,55175,999,16744,.49128E-3,.187E-5,0
ONEWEB-0715,2023-004AN,2026-06-29T13:10:47.565696,13.11415093,.0002385,87.8879,18.6075,100.0945,260.0452,0,U,55176,999,16748,.13675E-2,.497E-5,0
ONEWEB-0716,2023-004AP,2026-06-29T11:58:05.757600,13.17650708,.0001629,87.9131,3.4185,92.9397,267.1920,0,U,55177,999,16920,.48597E-4,.32E-6,0
ONEWEB-0717,2023-004AQ,2026-06-29T13:23:10.057056,13.17649201,.0002369,87.9142,3.3957,82.4717,277.6683,0,U,55178,999,16926,.8807E-4,.47E-6,0
ONEWEB-0719,2023-004AR,2026-06-29T11:48:23.950368,13.17649471,.0001668,87.9140,3.3891,87.7465,272.3857,0,U,55179,999,16920,.25449E-5,.14E-6,0
ONEWEB-0530,2023-029A,2026-06-29T06:52:57.556128,13.20772935,.0002175,87.9186,272.0569,87.4798,272.6585,0,U,55796,999,16274,.32348E-3,.145E-5,0
ONEWEB-0534,2023-029B,2026-06-29T06:35:58.600320,13.20772587,.0001924,87.9187,272.0601,101.8428,258.2921,0,U,55797,999,16274,.29555E-3,.133E-5,0
ONEWEB-0556,2023-029C,2026-06-29T06:45:38.930976,13.20772244,.000123,87.9187,272.0578,87.2539,272.8735,0,U,55798,999,16274,-.26784E-3,-.96E-6,0
ONEWEB-0562,2023-029D,2026-06-29T06:26:17.206080,13.20771677,.0001869,87.9187,272.0414,75.4167,284.7174,0,U,55799,999,16274,.14718E-3,.73E-6,0
ONEWEB-0563,2023-029E,2026-06-28T23:02:38.936832,13.20772743,.00018792,87.9185,272.1331,105.7205,254.4136,0,U,55800,999,16269,.13565957E-3,.68E-6,0
ONEWEB-0564,2023-029F,2026-06-28T22:52:58.157760,13.20772002,.00019807,87.9186,272.1081,88.6369,271.4991,0,U,55801,999,16270,-.40894237E-4,-.4E-7,0
ONEWEB-0638,2023-029G,2026-06-29T08:14:43.634976,13.14504565,.0001499,87.8960,287.3282,88.4111,271.7190,0,U,55802,999,16099,-.23607E-3,-.75E-6,0
ONEWEB-0639,2023-029H,2026-06-29T07:32:29.027904,13.19725612,.0001922,87.9179,302.5601,129.5567,230.5736,0,U,55803,999,16050,.21227E-3,.98E-6,0
